{
    "links": {
        "self": "http://www.neowsapp.com/rest/v1/neo/3164414?api_key=iIulBulltgU6a56xZRHN4H3l9WmuAYTsLGpBGhQ2"
    },
    "id": "3164414",
    "neo_reference_id": "3164414",
    "name": "(2003 UQ25)",
    "designation": "2003 UQ25",
    "nasa_jpl_url": "http://ssd.jpl.nasa.gov/sbdb.cgi?sstr=3164414",
    "absolute_magnitude_h": 24.1,
    "estimated_diameter": {
        "kilometers": {
            "estimated_diameter_min": 0.040230458,
            "estimated_diameter_max": 0.0899580388
        },
        "meters": {
            "estimated_diameter_min": 40.2304579834,
            "estimated_diameter_max": 89.9580388169
        },
        "miles": {
            "estimated_diameter_min": 0.0249980399,
            "estimated_diameter_max": 0.0558973165
        },
        "feet": {
            "estimated_diameter_min": 131.9896957704,
            "estimated_diameter_max": 295.1379320721
        }
    },
    "is_potentially_hazardous_asteroid": false,
    "close_approach_data": [
        {
            "close_approach_date": "2003-11-06",
            "close_approach_date_full": "2003-Nov-06 20:43",
            "epoch_date_close_approach": 1068151380000,
            "relative_velocity": {
                "kilometers_per_second": "16.0464985918",
                "kilometers_per_hour": "57767.3949304886",
                "miles_per_hour": "35894.4127000028"
            },
            "miss_distance": {
                "astronomical": "0.0392746807",
                "lunar": "15.2778507923",
                "kilometers": "5875408.577650109",
                "miles": "3650809.5998611442"
            },
            "orbiting_body": "Earth"
        }
    ],
    "orbital_data": {
        "orbit_id": "16",
        "orbit_determination_date": "2017-04-06 09:13:34",
        "first_observation_date": "2003-10-24",
        "last_observation_date": "2003-11-04",
        "data_arc_in_days": 11,
        "observations_used": 57,
        "orbit_uncertainty": "8",
        "minimum_orbit_intersection": ".0164127",
        "jupiter_tisserand_invariant": "3.067",
        "epoch_osculation": "2452940.5",
        "eccentricity": ".6823505348727769",
        "semi_major_axis": "2.54382617156825",
        "inclination": "2.135644609673824",
        "ascending_node_longitude": "187.6197639771693",
        "orbital_period": "1481.936427595382",
        "perihelion_distance": ".8080450227752863",
        "perihelion_argument": "276.4802336281248",
        "aphelion_distance": "4.279607320361213",
        "perihelion_time": "2452988.897249745475",
        "mean_anomaly": "348.2430787286592",
        "mean_motion": ".2429254003723646",
        "equinox": "J2000",
        "orbit_class": {
            "orbit_class_type": "APO",
            "orbit_class_description": "Near-Earth asteroid orbits which cross the Earth’s orbit similar to that of 1862 Apollo",
            "orbit_class_range": "a (semi-major axis) > 1.0 AU; q (perihelion) < 1.017 AU"
        }
    },
    "is_sentry_object": false
}